HAWK-11C                
1 62381U 24247E   26068.51221537  .00009223  00000+0  33290-3 0  9992
2 62381  45.0045 114.8762 0005900 329.7040  30.3502 15.28848020 67743
STARLINK-35878          
1 67178U 25303R   26068.02339645  .00033645  00000+0  12258-2 0  9996
2 67178  43.0020 314.4400 0002915 246.4167 113.6378 15.27598188 12638
